ONEWEB-0387             
1 49313U 21090AL  23167.63705721 -.00000600  00000+0 -15068-2 0  9991
2 49313  87.9257 132.7842 0002072 102.1790 257.9576 13.20770261 86383
ONEWEB-0388             
1 49314U 21090AM  23167.48943479  .00000070  00000+0  14178-3 0  9990
2 49314  87.9256 163.1417 0002176  86.6638 273.4743 13.19727221 83057
ONEWEB-0389             
1 50469U 21132A   23167.52798435  .00000030  00000+0  44865-4 0  9998
2 50469  87.9175 223.7068 0002370 111.6751 248.4633 13.17649901 73668
ONEWEB-0390             
1 50470U 21132B   23167.45429237  .00000236  00000+0  57382-3 0  9998
2 50470  87.9177 223.7263 0001976 107.3570 252.7777 13.17651267 73655
ONEWEB-0391             
1 50471U 21132C   23167.22872749  .00000054  00000+0  10470-3 0  9999
2 50471  87.9178 223.7420 0002247 104.4792 255.6589 13.17647066 73620
ONEWEB-0392             
1 50472U 21132D   23167.40962417  .00000079  00000+0  17040-3 0  9999
2 50472  87.9183 223.7428 0002093 106.5276 253.6086 13.17647768 73689
ONEWEB-0393             
1 50473U 21132E   23167.41967835  .00000041  00000+0  72145-4 0  9997
2 50473  87.9172 223.7125 0001924 103.6144 256.5201 13.17651901 73670
ONEWEB-0394             
1 50474U 21132F   23167.53063830  .00000742  00000+0  18480-2 0  9991
2 50474  87.9240 193.4229 0002703 101.7286 258.4150 13.18684654 77060
ONEWEB-0395             
1 50475U 21132G   23167.47632184  .00000122  00000+0  30897-3 0  9998
2 50475  87.8914 238.9387 0001976 107.2400 252.8945 13.11420928 71977
ONEWEB-0396             
1 50476U 21132H   23167.52432388  .00000079  00000+0  16709-3 0  9996
2 50476  87.9238 193.4166 0002363  95.0106 265.1296 13.18686904 77108
ONEWEB-0397             
1 50477U 21132J   23167.46319083  .00000006  00000+0 -16971-4 0  9999
2 50477  87.9237 193.4293 0002449  97.1766 262.9645 13.18687556 77072
ONEWEB-0398             
1 50478U 21132K   23167.44452428 -.00000122  00000+0 -37971-3 0  9991
2 50478  87.8910 238.9387 0001714 113.9720 246.1587 13.11415427 71869
ONEWEB-0399             
1 50479U 21132L   23167.43182101  .00000425  00000+0  11645-2 0  9992
2 50479  87.8910 238.9530 0002328  93.8024 266.3370 13.11415518 71859
ONEWEB-0400             
1 50480U 21132M   23167.51800552  .00000107  00000+0  23945-3 0  9994
2 50480  87.9244 193.4661 0001869  95.2569 264.8776 13.18687697 77070
ONEWEB-0401             
1 50481U 21132N   23167.48428813  .00000109  00000+0  24332-3 0  9990
2 50481  87.9239 193.4333 0002522  86.5227 273.6194 13.18686855 77079
ONEWEB-0402             
1 50482U 21132P   23167.52643038  .00000079  00000+0  16846-3 0  9991
2 50482  87.9245 193.4656 0002436  76.9062 283.2342 13.18684521 77103
ONEWEB-0403             
1 50483U 21132Q   23167.54961198 -.00000100  00000+0 -28586-3 0  9995
2 50483  87.9214 193.4451 0002454  93.2226 266.9187 13.18686336 78345
ONEWEB-0404             
1 50484U 21132R   23167.48904288  .00000544  00000+0  15003-2 0  9995
2 50484  87.8911 238.8986 0002725 109.1350 251.0073 13.11418729 71953
ONEWEB-0405             
1 50485U 21132S   23167.51694307  .00000085  00000+0  18387-3 0  9997
2 50485  87.9241 193.4258 0002626  84.6712 275.4720 13.18689437 77451
ONEWEB-0406             
1 50486U 21132T   23167.47795026  .00000083  00000+0  17797-3 0  9995
2 50486  87.9238 193.4354 0002484 102.3701 257.7709 13.18684849 77084
ONEWEB-0407             
1 50487U 21132U   23167.47161555  .00000111  00000+0  24975-3 0  9998
2 50487  87.9240 193.4438 0002385  92.3315 267.8090 13.18688020 77024
ONEWEB-0409             
1 50488U 21132V   23167.48692468  .00000446  00000+0  12225-2 0  9997
2 50488  87.8920 238.9098 0002354 116.3782 243.7588 13.11418619 71844
ONEWEB-0412             
1 50489U 21132W   23167.46110658  .00000203  00000+0  48267-3 0  9999
2 50489  87.9242 193.4732 0002745  83.8167 276.3278 13.18686441 77113
ONEWEB-0413             
1 50490U 21132X   23167.46529529  .00000039  00000+0  67268-4 0  9992
2 50490  87.9156 193.4538 0002462  83.6780 276.4633 13.18684097 77052
ONEWEB-0414             
1 50491U 21132Y   23167.52746875 -.00001179  00000+0 -30235-2 0  9995
2 50491  87.9155 193.4708 0003235  96.4475 263.7026 13.18694562 77090
ONEWEB-0417             
1 50492U 21132Z   23167.45899109  .00000095  00000+0  20922-3 0  9994
2 50492  87.9245 193.4857 0002173 101.3958 258.7418 13.18688206 77062
ONEWEB-0418             
1 50493U 21132AA  23167.47268545  .00000062  00000+0  12513-3 0  9992
2 50493  87.9241 193.4294 0002385 108.0481 252.0911 13.18686268 77122
ONEWEB-0419             
1 50494U 21132AB  23167.48638790  .00000107  00000+0  23878-3 0  9993
2 50494  87.9249 193.4490 0001850 102.7538 257.3801 13.18688072 77041
ONEWEB-0420             
1 50495U 21132AC  23167.52855159  .00000112  00000+0  25076-3 0  9997
2 50495  87.9245 193.4510 0001792  83.5747 276.5589 13.18687019 77040
ONEWEB-0421             
1 50496U 21132AD  23167.52220632  .00000103  00000+0  22728-3 0  9991
2 50496  87.9243 193.4593 0002654  87.5779 272.5657 13.18687534 77085
ONEWEB-0424             
1 50497U 21132AE  23167.48216335  .00000108  00000+0  24103-3 0  9996
2 50497  87.9244 193.4724 0001642  99.7622 260.3696 13.18688206 77109
ONEWEB-0426             
1 50498U 21132AF  23167.52011560  .00000073  00000+0  15270-3 0  9991
2 50498  87.9243 193.4467 0002651  95.9922 264.1512 13.18685371 77058
ONEWEB-0427             
1 50499U 21132AG  23167.48007157  .00000119  00000+0  26892-3 0  9997
2 50499  87.9245 193.4738 0002226 102.5385 257.5996 13.18685417 77073
ONEWEB-0429             
1 50500U 21132AH  23167.46740700 -.00000023  00000+0 -91213-4 0  9992
2 50500  87.9224 193.4542 0001989  92.3004 267.8356 13.18685611 77042
ONEWEB-0430             
1 50501U 21132AJ  23167.45686846  .00000072  00000+0  14961-3 0  9998
2 50501  87.9201 193.4659 0001773  94.1610 265.9724 13.18682487 77081
ONEWEB-0432             
1 50502U 21132AK  23167.48848991  .00000109  00000+0  24424-3 0  9999
2 50502  87.9244 193.4715 0002060  91.0461 269.0907 13.18684804 77041
ONEWEB-0440             
1 50503U 21132AL  23167.47585429  .00000057  00000+0  11073-3 0  9991
2 50503  87.9247 193.4844 0002742  80.7136 279.4306 13.18684850 77037
ONEWEB-0450             
1 50504U 21132AM  23167.46951432  .00000033  00000+0  50386-4 0  9997
2 50504  87.9248 193.4907 0001967  78.8155 281.3198 13.18683401 77061
ONEWEB-0410             
1 51622U 22012A   23167.39399534  .00000085  00000+0  18622-3 0  9991
2 51622  87.9173 223.7923 0003251 113.4894 246.6579 13.17648624 69266
ONEWEB-0411             
1 51623U 22012B   23167.52023080  .00000136  00000+0  35380-3 0  9994
2 51623  87.8846 254.0638 0002051 114.7595 245.3746 13.10376370 65663
ONEWEB-0415             
1 51624U 22012C   23167.51711428  .00000027  00000+0  41524-4 0  9991
2 51624  87.8846 254.0892 0001591 108.1486 251.9815 13.10378156 66946
ONEWEB-0416             
1 51625U 22012D   23167.29895976  .00000465  00000+0  12952-2 0  9995
2 51625  87.8844 254.1204 0001922  96.0829 264.0518 13.10377051 65674
ONEWEB-0422             
1 51626U 22012E   23167.40293769  .00000118  00000+0  27135-3 0  9996
2 51626  87.9169 223.7895 0002290  72.4651 287.6731 13.17650485 69375
ONEWEB-0423             
1 51627U 22012F   23167.39622006  .00000063  00000+0  12844-3 0  9995
2 51627  87.9171 223.7237 0002247  99.7453 260.3933 13.17656540 69261
ONEWEB-0425             
1 51628U 22012G   23167.30832158  .00000728  00000+0  20490-2 0  9991
2 51628  87.8837 254.1143 0002684  97.4849 262.6584 13.10373345 65673
ONEWEB-0428             
1 51629U 22012H   23167.51868667  .00000082  00000+0  19810-3 0  9997
2 51629  87.8845 254.0825 0001891  86.0857 274.0487 13.10377103 66947
ONEWEB-0431             
1 51630U 22012J   23167.47038558  .00000661  00000+0  18571-2 0  9997
2 51630  87.8839 254.0829 0001238 103.2747 256.8519 13.10370199 65717
ONEWEB-0434             
1 51631U 22012K   23167.61684699  .00000614  00000+0  17228-2 0  9993
2 51631  87.8839 254.0733 0001961  87.5849 272.5502 13.10374972 67006
ONEWEB-0435             
1 51632U 22012L   23167.47348882  .00000422  00000+0  11733-2 0  9991
2 51632  87.8835 254.0918 0001802  79.9313 280.2017 13.10370329 65684
ONEWEB-0436             
1 51633U 22012M   23167.39175567  .00000082  00000+0  17753-3 0  9992
2 51633  87.9171 223.7863 0002116  86.1461 273.9912 13.17646571 69245
ONEWEB-0438             
1 51634U 22012N   23167.60905824  .00000466  00000+0  12997-2 0  9994
2 51634  87.8841 254.0649 0002292 101.1663 258.9723 13.10375484 67027
ONEWEB-0439             
1 51635U 22012P   23167.30674803  .00000728  00000+0  20504-2 0  9996
2 51635  87.8840 254.1067 0001972  95.3375 264.7977 13.10375374 65673
ONEWEB-0442             
1 51636U 22012Q   23167.45875562  .00000069  00000+0  14370-3 0  9991
2 51636  87.9170 223.7551 0002580 117.9529 242.1863 13.17649651 69249
ONEWEB-0443             
1 51637U 22012R   23167.40070160  .00000114  00000+0  26062-3 0  9990
2 51637  87.9168 223.7721 0002444  79.9661 280.1747 13.17647523 69282
ONEWEB-0444             
1 51638U 22012S   23167.60281836  .00000361  00000+0  99759-3 0  9994
2 51638  87.8847 254.0743 0001984  89.9396 270.1959 13.10377877 67019
ONEWEB-0445             
1 51639U 22012T   23167.54829460  .00000536  00000+0  14980-2 0  9995
2 51639  87.8819 254.0812 0002143 113.3988 246.7364 13.10371281 65721
ONEWEB-0446             
1 51640U 22012U   23167.52491074  .00000414  00000+0  11484-2 0  9992
2 51640  87.8845 254.0840 0001782 103.9057 256.2268 13.10377960 65700
ONEWEB-0448             
1 51641U 22012V   23167.60595140  .00000516  00000+0  14418-2 0  9994
2 51641  87.8843 254.0700 0002080  90.8344 269.3022 13.10375015 66971
ONEWEB-0449             
1 51642U 22012W   23167.61063790  .00000575  00000+0  16098-2 0  9998
2 51642  87.8842 254.0695 0002238 102.4795 257.6583 13.10375479 66997
